{
    "links": {
        "self": "http://www.neowsapp.com/rest/v1/neo/3797477?api_key=iIulBulltgU6a56xZRHN4H3l9WmuAYTsLGpBGhQ2"
    },
    "id": "3797477",
    "neo_reference_id": "3797477",
    "name": "(2018 AM3)",
    "designation": "2018 AM3",
    "nasa_jpl_url": "http://ssd.jpl.nasa.gov/sbdb.cgi?sstr=3797477",
    "absolute_magnitude_h": 25.0,
    "estimated_diameter": {
        "kilometers": {
            "estimated_diameter_min": 0.02658,
            "estimated_diameter_max": 0.0594346868
        },
        "meters": {
            "estimated_diameter_min": 26.58,
            "estimated_diameter_max": 59.4346868419
        },
        "miles": {
            "estimated_diameter_min": 0.0165160412,
            "estimated_diameter_max": 0.0369309908
        },
        "feet": {
            "estimated_diameter_min": 87.2047272,
            "estimated_diameter_max": 194.9956979785
        }
    },
    "is_potentially_hazardous_asteroid": false,
    "close_approach_data": [
        {
            "close_approach_date": "2018-01-15",
            "close_approach_date_full": "2018-Jan-15 16:56",
            "epoch_date_close_approach": 1516035360000,
            "relative_velocity": {
                "kilometers_per_second": "7.7266001977",
                "kilometers_per_hour": "27815.7607115774",
                "miles_per_hour": "17283.6319821465"
            },
            "miss_distance": {
                "astronomical": "0.1234191643",
                "lunar": "48.0100549127",
                "kilometers": "18463244.096460041",
                "miles": "11472527.8933529258"
            },
            "orbiting_body": "Earth"
        }
    ],
    "orbital_data": {
        "orbit_id": "6",
        "orbit_determination_date": "2018-01-23 06:56:55",
        "first_observation_date": "2018-01-12",
        "last_observation_date": "2018-01-23",
        "data_arc_in_days": 11,
        "observations_used": 36,
        "orbit_uncertainty": "8",
        "minimum_orbit_intersection": ".122649",
        "jupiter_tisserand_invariant": "3.596",
        "epoch_osculation": "2458133.5",
        "eccentricity": ".4681549970485462",
        "semi_major_axis": "2.07984038503449",
        "inclination": "11.74977132789082",
        "ascending_node_longitude": "117.0299005730021",
        "orbital_period": "1095.578338951505",
        "perihelion_distance": "1.106152715717221",
        "perihelion_argument": "356.9971979662446",
        "aphelion_distance": "3.053528054351758",
        "perihelion_time": "2458132.324940463202",
        "mean_anomaly": ".38611701072159",
        "mean_motion": ".3285935721808162",
        "equinox": "J2000",
        "orbit_class": {
            "orbit_class_type": "AMO",
            "orbit_class_description": "Near-Earth asteroid orbits similar to that of 1221 Amor",
            "orbit_class_range": "1.017 AU < q (perihelion) < 1.3 AU"
        }
    },
    "is_sentry_object": false
}